{
  "type": "FeatureCollection",
  "features": [
    {
      "type": "Feature",
      "properties": {
        "norad_id": 55268,
        "name": "GPS BIII-6  (PRN 28)",
        "group": "gnss",
        "lat": -38.30635972381886,
        "lon": 122.15888174544878,
        "alt_km": 20180.680133435944,
        "timestamp": "2025-12-17T21:39:45.934117+00:00",
        "meta_object_name": "GPS BIII-6  (PRN 28)",
        "meta_object_id": "2023-009A",
        "meta_epoch": "2025-12-17T05:26:38.724576",
        "meta_mean_motion": 2.00555443,
        "meta_eccentricity": 0.00036765,
        "meta_inclination": 55.1057,
        "meta_ra_of_asc_node": 155.6691,
        "meta_arg_of_pericenter": 356.3023,
        "meta_mean_anomaly": 186.6763,
        "meta_ephemeris_type": 0,
        "meta_classification_type": "U",
        "meta_norad_cat_id": 55268,
        "meta_element_set_no": 999,
        "meta_rev_at_epoch": 2159,
        "meta_bstar": 0,
        "meta_mean_motion_dot": 7.9e-07,
        "meta_mean_motion_ddot": 0,
        "tle_line1": "1 55268U 23009A   25351.22683709  .00000079  00000+0  00000+0 0  9997",
        "tle_line2": "2 55268  55.1057 155.6691 0003676 356.3023 186.6763  2.00555443 21590"
      },
      "geometry": {
        "type": "Point",
        "coordinates": [
          122.15888174544878,
          -38.30635972381886
        ]
      }
    },
    {
      "type": "Feature",
      "properties": {
        "norad_id": 56564,
        "name": "BEIDOU-3 G4 (C62)",
        "group": "gnss",
        "lat": -0.8238288148078983,
        "lon": -148.21679917257535,
        "alt_km": 35777.57461145075,
        "timestamp": "2025-12-17T21:39:45.934127+00:00",
        "meta_object_name": "BEIDOU-3 G4 (C62)",
        "meta_object_id": "2023-066A",
        "meta_epoch": "2025-12-17T15:08:37.724352",
        "meta_mean_motion": 1.0027174,
        "meta_eccentricity": 0.00027713,
        "meta_inclination": 0.8046,
        "meta_ra_of_asc_node": 302.4301,
        "meta_arg_of_pericenter": 227.3204,
        "meta_mean_anomaly": 303.9742,
        "meta_ephemeris_type": 0,
        "meta_classification_type": "U",
        "meta_norad_cat_id": 56564,
        "meta_element_set_no": 999,
        "meta_rev_at_epoch": 957,
        "meta_bstar": 0,
        "meta_mean_motion_dot": -8.5e-07,
        "meta_mean_motion_ddot": 0,
        "tle_line1": "1 56564U 23066A   25351.63099218 -.00000085  00000+0  00000+0 0  9999",
        "tle_line2": "2 56564   0.8046 302.4301 0002771 227.3204 303.9742  1.00271740  9577"
      },
      "geometry": {
        "type": "Point",
        "coordinates": [
          -148.21679917257535,
          -0.8238288148078983
        ]
      }
    },
    {
      "type": "Feature",
      "properties": {
        "norad_id": 56759,
        "name": "NVS-01 (IRNSS-1J)",
        "group": "gnss",
        "lat": -2.4638582898083174,
        "lon": -178.86006584863182,
        "alt_km": 35782.73675592845,
        "timestamp": "2025-12-17T21:39:45.934137+00:00",
        "meta_object_name": "NVS-01 (IRNSS-1J)",
        "meta_object_id": "2023-076A",
        "meta_epoch": "2025-12-17T13:56:34.001376",
        "meta_mean_motion": 1.00275299,
        "meta_eccentricity": 0.00087899,
        "meta_inclination": 2.6067,
        "meta_ra_of_asc_node": 251.4278,
        "meta_arg_of_pericenter": 15.5873,
        "meta_mean_anomaly": 158.1035,
        "meta_ephemeris_type": 0,
        "meta_classification_type": "U",
        "meta_norad_cat_id": 56759,
        "meta_element_set_no": 999,
        "meta_rev_at_epoch": 929,
        "meta_bstar": 0,
        "meta_mean_motion_dot": -3.07e-06,
        "meta_mean_motion_ddot": 0,
        "tle_line1": "1 56759U 23076A   25351.58094909 -.00000307  00000+0  00000+0 0  9999",
        "tle_line2": "2 56759   2.6067 251.4278 0008789  15.5873 158.1035  1.00275299  9293"
      },
      "geometry": {
        "type": "Point",
        "coordinates": [
          -178.86006584863182,
          -2.4638582898083174
        ]
      }
    },
    {
      "type": "Feature",
      "properties": {
        "norad_id": 57517,
        "name": "COSMOS 2569 (703K)",
        "group": "gnss",
        "lat": -11.667396829084774,
        "lon": -95.78215855508186,
        "alt_km": 19133.70832031235,
        "timestamp": "2025-12-17T21:39:45.934147+00:00",
        "meta_object_name": "COSMOS 2569 (703K)",
        "meta_object_id": "2023-114A",
        "meta_epoch": "2025-12-17T15:37:24.355776",
        "meta_mean_motion": 2.13104039,
        "meta_eccentricity": 0.00107108,
        "meta_inclination": 65.1967,
        "meta_ra_of_asc_node": 78.7475,
        "meta_arg_of_pericenter": 286.9881,
        "meta_mean_anomaly": 72.9145,
        "meta_ephemeris_type": 0,
        "meta_classification_type": "U",
        "meta_norad_cat_id": 57517,
        "meta_element_set_no": 999,
        "meta_rev_at_epoch": 1839,
        "meta_bstar": 0,
        "meta_mean_motion_dot": -4.6e-07,
        "meta_mean_motion_ddot": 0,
        "tle_line1": "1 57517U 23114A   25351.65097634 -.00000046  00000+0  00000+0 0  9991",
        "tle_line2": "2 57517  65.1967  78.7475 0010710 286.9881  72.9145  2.13104039 18392"
      },
      "geometry": {
        "type": "Point",
        "coordinates": [
          -95.78215855508186,
          -11.667396829084774
        ]
      }
    },
    {
      "type": "Feature",
      "properties": {
        "norad_id": 58654,
        "name": "BEIDOU-3 M28 (C50)",
        "group": "gnss",
        "lat": 47.70867968892808,
        "lon": 117.23508902236645,
        "alt_km": 21528.885642793306,
        "timestamp": "2025-12-17T21:39:45.934158+00:00",
        "meta_object_name": "BEIDOU-3 M28 (C50)",
        "meta_object_id": "2023-207A",
        "meta_epoch": "2025-12-17T06:29:44.947968",
        "meta_mean_motion": 1.86229839,
        "meta_eccentricity": 0.00025948,
        "meta_inclination": 55.5883,
        "meta_ra_of_asc_node": 68.448,
        "meta_arg_of_pericenter": 271.6936,
        "meta_mean_anomaly": 88.3013,
        "meta_ephemeris_type": 0,
        "meta_classification_type": "U",
        "meta_norad_cat_id": 58654,
        "meta_element_set_no": 999,
        "meta_rev_at_epoch": 1345,
        "meta_bstar": 0,
        "meta_mean_motion_dot": -7.5e-07,
        "meta_mean_motion_ddot": 0,
        "tle_line1": "1 58654U 23207A   25351.27065912 -.00000075  00000+0  00000+0 0  9991",
        "tle_line2": "2 58654  55.5883  68.4480 0002594 271.6936  88.3013  1.86229839 13452"
      },
      "geometry": {
        "type": "Point",
        "coordinates": [
          117.23508902236645,
          47.70867968892808
        ]
      }
    },
    {
      "type": "Feature",
      "properties": {
        "norad_id": 58655,
        "name": "BEIDOU-3 M26 (C48)",
        "group": "gnss",
        "lat": -15.871542817669935,
        "lon": -100.35488055553607,
        "alt_km": 21524.452216872156,
        "timestamp": "2025-12-17T21:39:45.934168+00:00",
        "meta_object_name": "BEIDOU-3 M26 (C48)",
        "meta_object_id": "2023-207B",
        "meta_epoch": "2025-12-17T01:38:17.973312",
        "meta_mean_motion": 1.86231321,
        "meta_eccentricity": 0.00040056,
        "meta_inclination": 55.5902,
        "meta_ra_of_asc_node": 68.4411,
        "meta_arg_of_pericenter": 257.8866,
        "meta_mean_anomaly": 102.0924,
        "meta_ephemeris_type": 0,
        "meta_classification_type": "U",
        "meta_norad_cat_id": 58655,
        "meta_element_set_no": 999,
        "meta_rev_at_epoch": 1343,
        "meta_bstar": 0,
        "meta_mean_motion_dot": -7.6e-07,
        "meta_mean_motion_ddot": 0,
        "tle_line1": "1 58655U 23207B   25351.06826358 -.00000076  00000+0  00000+0 0  9999",
        "tle_line2": "2 58655  55.5902  68.4411 0004005 257.8866 102.0924  1.86231321 13438"
      },
      "geometry": {
        "type": "Point",
        "coordinates": [
          -100.35488055553607,
          -15.871542817669935
        ]
      }
    },
    {
      "type": "Feature",
      "properties": {
        "norad_id": 59598,
        "name": "GSAT0225 (GALILEO 29)",
        "group": "gnss",
        "lat": -21.673323182888783,
        "lon": -57.71476008684252,
        "alt_km": 23219.233669973906,
        "timestamp": "2025-12-17T21:39:45.934178+00:00",
        "meta_object_name": "GSAT0225 (GALILEO 29)",
        "meta_object_id": "2024-079A",
        "meta_epoch": "2025-12-16T09:22:38.225280",
        "meta_mean_motion": 1.70475011,
        "meta_eccentricity": 0.00021396,
        "meta_inclination": 55.0038,
        "meta_ra_of_asc_node": 106.1932,
        "meta_arg_of_pericenter": 182.0305,
        "meta_mean_anomaly": 176.7742,
        "meta_ephemeris_type": 0,
        "meta_classification_type": "U",
        "meta_norad_cat_id": 59598,
        "meta_element_set_no": 999,
        "meta_rev_at_epoch": 1019,
        "meta_bstar": 0,
        "meta_mean_motion_dot": -1e-07,
        "meta_mean_motion_ddot": 0,
        "tle_line1": "1 59598U 24079A   25350.39072020 -.00000010  00000+0  00000+0 0  9996",
        "tle_line2": "2 59598  55.0038 106.1932 0002139 182.0305 176.7742  1.70475011 10196"
      },
      "geometry": {
        "type": "Point",
        "coordinates": [
          -57.71476008684252,
          -21.673323182888783
        ]
      }
    }
  ]
}